[{"OBJECT_NAME":"STARLINK-1307","OBJECT_ID":"2020-019AP","EPOCH":"2026-03-09T11:44:39.008832","MEAN_MOTION":15.50016975,"ECCENTRICITY":0.00021358,"INCLINATION":53.0547,"RA_OF_ASC_NODE":131.7054,"ARG_OF_PERICENTER":40.91,"MEAN_ANOMALY":319.2068,"EPHEMERIS_TYPE":0,"CLASSIFICATION_TYPE":"U","NORAD_CAT_ID":45397,"ELEMENT_SET_NO":999,"REV_AT_EPOCH":33002,"BSTAR":0.00043970395,"MEAN_MOTION_DOT":0.00024703,"MEAN_MOTION_DDOT":0},{"OBJECT_NAME":"STARLINK-36717","OBJECT_ID":"2026-026Y","EPOCH":"2026-03-09T22:00:01.999584","MEAN_MOTION":15.49158128,"ECCENTRICITY":0.00015847,"INCLINATION":97.2845,"RA_OF_ASC_NODE":123.5271,"ARG_OF_PERICENTER":85.907,"MEAN_ANOMALY":181.2155,"EPHEMERIS_TYPE":0,"CLASSIFICATION_TYPE":"U","NORAD_CAT_ID":67743,"ELEMENT_SET_NO":999,"REV_AT_EPOCH":548,"BSTAR":0.0013003436,"MEAN_MOTION_DOT":0.00071198,"MEAN_MOTION_DDOT":0}]
